STARLINK-1048           
1 44753U 19074AS  26068.52133266  .00088315  00000+0  13673-2 0  9990
2 44753  53.0520 169.6561 0000171  86.0579 274.0450 15.53328855348976
STARLINK-1598           
1 46160U 20057AV  26068.85245156  .00116093  00000+0  19257-2 0  9994
2 46160  53.0523 282.8252 0003958 206.2678 153.8130 15.51269749307800
