[{"OBJECT_NAME":"STARLINK-1048","OBJECT_ID":"2019-074AS","EPOCH":"2026-03-09T12:30:43.141824","MEAN_MOTION":15.53328855,"ECCENTRICITY":1.717e-5,"INCLINATION":53.052,"RA_OF_ASC_NODE":169.6561,"ARG_OF_PERICENTER":86.0579,"MEAN_ANOMALY":274.045,"EPHEMERIS_TYPE":0,"CLASSIFICATION_TYPE":"U","NORAD_CAT_ID":44753,"ELEMENT_SET_NO":999,"REV_AT_EPOCH":34897,"BSTAR":0.0013672925,"MEAN_MOTION_DOT":0.00088315,"MEAN_MOTION_DDOT":0},{"OBJECT_NAME":"STARLINK-1598","OBJECT_ID":"2020-057AV","EPOCH":"2026-03-09T20:27:31.815648","MEAN_MOTION":15.51269749,"ECCENTRICITY":0.00039579,"INCLINATION":53.0523,"RA_OF_ASC_NODE":282.8252,"ARG_OF_PERICENTER":206.2678,"MEAN_ANOMALY":153.813,"EPHEMERIS_TYPE":0,"CLASSIFICATION_TYPE":"U","NORAD_CAT_ID":46160,"ELEMENT_SET_NO":999,"REV_AT_EPOCH":30780,"BSTAR":0.0019256544,"MEAN_MOTION_DOT":0.00116093,"MEAN_MOTION_DDOT":0}]
